STARLINK-32295          
1 62147U 24224J   26068.27456895  .00026796  00000+0  97920-3 0  9991
2 62147  42.9978 160.6962 0000910 277.2560  82.8188 15.27598266 72308
FLOCK 4G-8              
1 62613U 25009E   26068.72381419  .00013559  00000+0  50438-3 0  9996
2 62613  97.4045 151.2834 0003050 315.2538  44.8455 15.27623414 63721
